CCSDS_OMM_VERS = 2.0
CREATION_DATE  = 
ORIGINATOR     = 

OBJECT_NAME    = STARLINK-35815
OBJECT_ID      = 2025-268W
CENTER_NAME    = EARTH
REF_FRAME      = TEME
TIME_SYSTEM    = UTC
MEAN_ELEMENT_THEORY = SGP/SGP4

EPOCH          = 2025-12-22T04:00:01.998720
MEAN_MOTION    = 15.56428878
ECCENTRICITY   = .0001599
INCLINATION    = 43.0005
RA_OF_ASC_NODE = 65.8668
ARG_OF_PERICENTER = 260.3185
MEAN_ANOMALY   = 45.8890

EPHEMERIS_TYPE = 0
CLASSIFICATION_TYPE = U
NORAD_CAT_ID   = 66577
ELEMENT_SET_NO = 999
REV_AT_EPOCH   = 608
BSTAR          = -.48357E-3
MEAN_MOTION_DOT = -.35316E-3
MEAN_MOTION_DDOT = 0

CCSDS_OMM_VERS = 2.0
CREATION_DATE  = 
ORIGINATOR     = 

OBJECT_NAME    = STARLINK-35743
OBJECT_ID      = 2025-268X
CENTER_NAME    = EARTH
REF_FRAME      = TEME
TIME_SYSTEM    = UTC
MEAN_ELEMENT_THEORY = SGP/SGP4

EPOCH          = 2025-12-22T04:00:01.998720
MEAN_MOTION    = 15.56463182
ECCENTRICITY   = .0001665
INCLINATION    = 43.0005
RA_OF_ASC_NODE = 65.8624
ARG_OF_PERICENTER = 255.3587
MEAN_ANOMALY   = 52.7616

EPHEMERIS_TYPE = 0
CLASSIFICATION_TYPE = U
NORAD_CAT_ID   = 66578
ELEMENT_SET_NO = 999
REV_AT_EPOCH   = 608
BSTAR          = -.18251E-2
MEAN_MOTION_DOT = -.130872E-2
MEAN_MOTION_DDOT = 0

CCSDS_OMM_VERS = 2.0
CREATION_DATE  = 
ORIGINATOR     = 

OBJECT_NAME    = STARLINK-35868
OBJECT_ID      = 2025-268Y
CENTER_NAME    = EARTH
REF_FRAME      = TEME
TIME_SYSTEM    = UTC
MEAN_ELEMENT_THEORY = SGP/SGP4

EPOCH          = 2025-12-22T04:00:01.998720
MEAN_MOTION    = 15.56418861
ECCENTRICITY   = .0001666
INCLINATION    = 43.0006
RA_OF_ASC_NODE = 65.8570
ARG_OF_PERICENTER = 251.5341
MEAN_ANOMALY   = 58.4982

EPHEMERIS_TYPE = 0
CLASSIFICATION_TYPE = U
NORAD_CAT_ID   = 66579
ELEMENT_SET_NO = 999
REV_AT_EPOCH   = 616
BSTAR          = -.69799E-3
MEAN_MOTION_DOT = -.50696E-3
MEAN_MOTION_DDOT = 0

CCSDS_OMM_VERS = 2.0
CREATION_DATE  = 
ORIGINATOR     = 

OBJECT_NAME    = STARLINK-35872
OBJECT_ID      = 2025-268Z
CENTER_NAME    = EARTH
REF_FRAME      = TEME
TIME_SYSTEM    = UTC
MEAN_ELEMENT_THEORY = SGP/SGP4

EPOCH          = 2025-12-22T04:00:01.998720
MEAN_MOTION    = 15.56486942
ECCENTRICITY   = .0001555
INCLINATION    = 43.0006
RA_OF_ASC_NODE = 65.8534
ARG_OF_PERICENTER = 259.5383
MEAN_ANOMALY   = 52.4105

EPHEMERIS_TYPE = 0
CLASSIFICATION_TYPE = U
NORAD_CAT_ID   = 66580
ELEMENT_SET_NO = 999
REV_AT_EPOCH   = 608
BSTAR          = -.23407E-2
MEAN_MOTION_DOT = -.167129E-2
MEAN_MOTION_DDOT = 0

CCSDS_OMM_VERS = 2.0
CREATION_DATE  = 
ORIGINATOR     = 

OBJECT_NAME    = STARLINK-35744
OBJECT_ID      = 2025-268AA
CENTER_NAME    = EARTH
REF_FRAME      = TEME
TIME_SYSTEM    = UTC
MEAN_ELEMENT_THEORY = SGP/SGP4

EPOCH          = 2025-12-22T04:00:01.998720
MEAN_MOTION    = 15.56418215
ECCENTRICITY   = .0001582
INCLINATION    = 43.0007
RA_OF_ASC_NODE = 65.8475
ARG_OF_PERICENTER = 257.3237
MEAN_ANOMALY   = 56.5423

EPHEMERIS_TYPE = 0
CLASSIFICATION_TYPE = U
NORAD_CAT_ID   = 66581
ELEMENT_SET_NO = 999
REV_AT_EPOCH   = 613
BSTAR          = -.6578E-3
MEAN_MOTION_DOT = -.47814E-3
MEAN_MOTION_DDOT = 0

CCSDS_OMM_VERS = 2.0
CREATION_DATE  = 
ORIGINATOR     = 

OBJECT_NAME    = STARLINK-35746
OBJECT_ID      = 2025-268AB
CENTER_NAME    = EARTH
REF_FRAME      = TEME
TIME_SYSTEM    = UTC
MEAN_ELEMENT_THEORY = SGP/SGP4

EPOCH          = 2025-12-22T04:00:01.998720
MEAN_MOTION    = 15.56450104
ECCENTRICITY   = .0001492
INCLINATION    = 43.0006
RA_OF_ASC_NODE = 65.8422
ARG_OF_PERICENTER = 256.5861
MEAN_ANOMALY   = 59.2078

EPHEMERIS_TYPE = 0
CLASSIFICATION_TYPE = U
NORAD_CAT_ID   = 66582
ELEMENT_SET_NO = 999
REV_AT_EPOCH   = 608
BSTAR          = -.15527E-2
MEAN_MOTION_DOT = -.111602E-2
MEAN_MOTION_DDOT = 0

CCSDS_OMM_VERS = 2.0
CREATION_DATE  = 
ORIGINATOR     = 

OBJECT_NAME    = STARLINK-35941
OBJECT_ID      = 2025-268AC
CENTER_NAME    = EARTH
REF_FRAME      = TEME
TIME_SYSTEM    = UTC
MEAN_ELEMENT_THEORY = SGP/SGP4

EPOCH          = 2025-12-22T04:00:01.998720
MEAN_MOTION    = 15.56424832
ECCENTRICITY   = .0001575
INCLINATION    = 43.0007
RA_OF_ASC_NODE = 65.8377
ARG_OF_PERICENTER = 263.5547
MEAN_ANOMALY   = 54.1432

EPHEMERIS_TYPE = 0
CLASSIFICATION_TYPE = U
NORAD_CAT_ID   = 66583
ELEMENT_SET_NO = 999
REV_AT_EPOCH   = 613
BSTAR          = -.80434E-3
MEAN_MOTION_DOT = -.58322E-3
MEAN_MOTION_DDOT = 0

CCSDS_OMM_VERS = 2.0
CREATION_DATE  = 
ORIGINATOR     = 

OBJECT_NAME    = STARLINK-35939
OBJECT_ID      = 2025-268AD
CENTER_NAME    = EARTH
REF_FRAME      = TEME
TIME_SYSTEM    = UTC
MEAN_ELEMENT_THEORY = SGP/SGP4

EPOCH          = 2025-12-22T04:00:01.998720
MEAN_MOTION    = 15.56481595
ECCENTRICITY   = .0001642
INCLINATION    = 43.0006
RA_OF_ASC_NODE = 65.8338
ARG_OF_PERICENTER = 259.0309
MEAN_ANOMALY   = 60.5926

EPHEMERIS_TYPE = 0
CLASSIFICATION_TYPE = U
NORAD_CAT_ID   = 66584
ELEMENT_SET_NO = 999
REV_AT_EPOCH   = 608
BSTAR          = -.22963E-2
MEAN_MOTION_DOT = -.163997E-2
MEAN_MOTION_DDOT = 0

CCSDS_OMM_VERS = 2.0
CREATION_DATE  = 
ORIGINATOR     = 

OBJECT_NAME    = STARLINK-35963
OBJECT_ID      = 2025-268AE
CENTER_NAME    = EARTH
REF_FRAME      = TEME
TIME_SYSTEM    = UTC
MEAN_ELEMENT_THEORY = SGP/SGP4

EPOCH          = 2025-12-22T04:00:01.998720
MEAN_MOTION    = 15.52826971
ECCENTRICITY   = .0001162
INCLINATION    = 43.0006
RA_OF_ASC_NODE = 65.8407
ARG_OF_PERICENTER = 262.7912
MEAN_ANOMALY   = 53.5977

EPHEMERIS_TYPE = 0
CLASSIFICATION_TYPE = U
NORAD_CAT_ID   = 66585
ELEMENT_SET_NO = 999
REV_AT_EPOCH   = 608
BSTAR          = -.36054E-1
MEAN_MOTION_DOT = -.2044361E-1
MEAN_MOTION_DDOT = 0

CCSDS_OMM_VERS = 2.0
CREATION_DATE  = 
ORIGINATOR     = 

OBJECT_NAME    = TJS-21
OBJECT_ID      = 2025-269A
CENTER_NAME    = EARTH
REF_FRAME      = TEME
TIME_SYSTEM    = UTC
MEAN_ELEMENT_THEORY = SGP/SGP4

EPOCH          = 2025-12-18T16:58:10.473888
MEAN_MOTION    = 2.00580748
ECCENTRICITY   = .6806869
INCLINATION    = 63.2733
RA_OF_ASC_NODE = 161.7218
ARG_OF_PERICENTER = 269.7428
MEAN_ANOMALY   = 18.6663

EPHEMERIS_TYPE = 0
CLASSIFICATION_TYPE = U
NORAD_CAT_ID   = 66586
ELEMENT_SET_NO = 999
REV_AT_EPOCH   = 55
BSTAR          = -.59507049E-1
MEAN_MOTION_DOT = .1084E-4
MEAN_MOTION_DDOT = 0

CCSDS_OMM_VERS = 2.0
CREATION_DATE  = 
ORIGINATOR     = 

OBJECT_NAME    = STARLINK-36076
OBJECT_ID      = 2025-270A
CENTER_NAME    = EARTH
REF_FRAME      = TEME
TIME_SYSTEM    = UTC
MEAN_ELEMENT_THEORY = SGP/SGP4

EPOCH          = 2025-12-21T19:31:30.258624
MEAN_MOTION    = 15.40748824
ECCENTRICITY   = .0005407
INCLINATION    = 42.9990
RA_OF_ASC_NODE = 140.4952
ARG_OF_PERICENTER = 245.1466
MEAN_ANOMALY   = 114.8829

EPHEMERIS_TYPE = 0
CLASSIFICATION_TYPE = U
NORAD_CAT_ID   = 66588
ELEMENT_SET_NO = 999
REV_AT_EPOCH   = 574
BSTAR          = .11456E-2
MEAN_MOTION_DOT = .47951E-3
MEAN_MOTION_DDOT = 0

CCSDS_OMM_VERS = 2.0
CREATION_DATE  = 
ORIGINATOR     = 

OBJECT_NAME    = STARLINK-35447
OBJECT_ID      = 2025-270B
CENTER_NAME    = EARTH
REF_FRAME      = TEME
TIME_SYSTEM    = UTC
MEAN_ELEMENT_THEORY = SGP/SGP4

EPOCH          = 2025-12-21T19:05:43.044576
MEAN_MOTION    = 15.40715065
ECCENTRICITY   = .0001618
INCLINATION    = 43.0008
RA_OF_ASC_NODE = 140.3570
ARG_OF_PERICENTER = 273.5190
MEAN_ANOMALY   = 86.5481

EPHEMERIS_TYPE = 0
CLASSIFICATION_TYPE = U
NORAD_CAT_ID   = 66589
ELEMENT_SET_NO = 999
REV_AT_EPOCH   = 585
BSTAR          = .46734E-3
MEAN_MOTION_DOT = .19277E-3
MEAN_MOTION_DDOT = 0

