STARLINK-35815          
1 66577U 25268W   25356.16668980 -.00035316  00000+0 -48357-3 0  9998
2 66577  43.0005  65.8668 0001599 260.3185  45.8890 15.56428878  6085
STARLINK-35743          
1 66578U 25268X   25356.16668980 -.00130872  00000+0 -18251-2 0  9991
2 66578  43.0005  65.8624 0001665 255.3587  52.7616 15.56463182  6082
STARLINK-35868          
1 66579U 25268Y   25356.16668980 -.00050696  00000+0 -69799-3 0  9991
2 66579  43.0006  65.8570 0001666 251.5341  58.4982 15.56418861  6163
STARLINK-35872          
1 66580U 25268Z   25356.16668980 -.00167129  00000+0 -23407-2 0  9998
2 66580  43.0006  65.8534 0001555 259.5383  52.4105 15.56486942  6083
STARLINK-35744          
1 66581U 25268AA  25356.16668980 -.00047814  00000+0 -65780-3 0  9998
2 66581  43.0007  65.8475 0001582 257.3237  56.5423 15.56418215  6135
STARLINK-35746          
1 66582U 25268AB  25356.16668980 -.00111602  00000+0 -15527-2 0  9999
2 66582  43.0006  65.8422 0001492 256.5861  59.2078 15.56450104  6084
STARLINK-35941          
1 66583U 25268AC  25356.16668980 -.00058322  00000+0 -80434-3 0  9999
2 66583  43.0007  65.8377 0001575 263.5547  54.1432 15.56424832  6139
STARLINK-35939          
1 66584U 25268AD  25356.16668980 -.00163997  00000+0 -22963-2 0  9997
2 66584  43.0006  65.8338 0001642 259.0309  60.5926 15.56481595  6089
STARLINK-35963          
1 66585U 25268AE  25356.16668980 -.02044361  00000+0 -36054-1 0  9998
2 66585  43.0006  65.8407 0001162 262.7912  53.5977 15.52826971  6080
TJS-21                  
1 66586U 25269A   25352.70706567  .00001084  00000+0 -59507-1 0  9990
2 66586  63.2733 161.7218 6806869 269.7428  18.6663  2.00580748   558
STARLINK-36076          
1 66588U 25270A   25355.81354466  .00047951  00000+0  11456-2 0  9990
2 66588  42.9990 140.4952 0005407 245.1466 114.8829 15.40748824  5749
STARLINK-35447          
1 66589U 25270B   25355.79563709  .00019277  00000+0  46734-3 0  9998
2 66589  43.0008 140.3570 0001618 273.5190  86.5481 15.40715065  5858
